[
    {
        "Altitude(m)": 704709.3615166766,
        "Argument of Periapsis(deg)": 0.010251109067964361,
        "Eccentricity": 0.0,
        "Inclination(deg)": 45.0,
        "Latitude(deg)": -7.428254562596365,
        "Longitude(deg)": 161.75762639191495,
        "Mean Anomaly(deg)": 190.37989498273274,
        "RAAN(deg)": 74.99032325268763,
        "Satellite Name": "Constellation 1 341",
        "Satellite Number": 341,
        "Semi-Major Axis(m)": 7083131.272910544,
        "Time(s)": 171
    },
    {
        "Altitude(m)": 704718.3609273542,
        "Argument of Periapsis(deg)": 0.010311057074209765,
        "Eccentricity": 0.0,
        "Inclination(deg)": 45.0,
        "Latitude(deg)": -7.471082499380544,
        "Longitude(deg)": 161.79708895179317,
        "Mean Anomaly(deg)": 190.44059612298264,
        "RAAN(deg)": 74.99026666352205,
        "Satellite Name": "Constellation 1 341",
        "Satellite Number": 341,
        "Semi-Major Axis(m)": 7083131.272910544,
        "Time(s)": 172
    },
    {
        "Altitude(m)": 704727.3784836951,
        "Argument of Periapsis(deg)": 0.010371005080455171,
        "Eccentricity": 0.0,
        "Inclination(deg)": 45.0,
        "Latitude(deg)": -7.5139059687318985,
        "Longitude(deg)": 161.83655990596773,
        "Mean Anomaly(deg)": 190.50129726323257,
        "RAAN(deg)": 74.99021007435648,
        "Satellite Name": "Constellation 1 341",
        "Satellite Number": 341,
        "Semi-Major Axis(m)": 7083131.272910544,
        "Time(s)": 173
    },
    {
        "Altitude(m)": 704736.4141635202,
        "Argument of Periapsis(deg)": 0.010430953086700577,
        "Eccentricity": 0.0,
        "Inclination(deg)": 45.0,
        "Latitude(deg)": -7.55672494438418,
        "Longitude(deg)": 161.8760393042729,
        "Mean Anomaly(deg)": 190.56199840348245,
        "RAAN(deg)": 74.9901534851909,
        "Satellite Name": "Constellation 1 341",
        "Satellite Number": 341,
        "Semi-Major Axis(m)": 7083131.272910544,
        "Time(s)": 174
    },
    {
        "Altitude(m)": 704745.4679445636,
        "Argument of Periapsis(deg)": 0.010490901092945983,
        "Eccentricity": 0.0,
        "Inclination(deg)": 45.0,
        "Latitude(deg)": -7.599539400055493,
        "Longitude(deg)": 161.9155271965608,
        "Mean Anomaly(deg)": 190.62269954373238,
        "RAAN(deg)": 74.99009689602534,
        "Satellite Name": "Constellation 1 341",
        "Satellite Number": 341,
        "Semi-Major Axis(m)": 7083131.272910544,
        "Time(s)": 175
    },
    {
        "Altitude(m)": 704754.5398044824,
        "Argument of Periapsis(deg)": 0.010550849099191389,
        "Eccentricity": 0.0,
        "Inclination(deg)": 45.0,
        "Latitude(deg)": -7.642349309447858,
        "Longitude(deg)": 161.955023632701,
        "Mean Anomaly(deg)": 190.6834006839822,
        "RAAN(deg)": 74.99004030685978,
        "Satellite Name": "Constellation 1 341",
        "Satellite Number": 341,
        "Semi-Major Axis(m)": 7083131.272910544,
        "Time(s)": 176
    },
    {
        "Altitude(m)": 704763.6297208458,
        "Argument of Periapsis(deg)": 0.010610797105436795,
        "Eccentricity": 0.0,
        "Inclination(deg)": 45.0,
        "Latitude(deg)": -7.685154646247491,
        "Longitude(deg)": 161.99452866258142,
        "Mean Anomaly(deg)": 190.74410182423213,
        "RAAN(deg)": 74.9899837176942,
        "Satellite Name": "Constellation 1 341",
        "Satellite Number": 341,
        "Semi-Major Axis(m)": 7083131.272910544,
        "Time(s)": 177
    },
    {
        "Altitude(m)": 704772.7376711338,
        "Argument of Periapsis(deg)": 0.0106707451116822,
        "Eccentricity": 0.0,
        "Inclination(deg)": 45.0,
        "Latitude(deg)": -7.72795538412408,
        "Longitude(deg)": 162.0340421680106,
        "Mean Anomaly(deg)": 190.804802964482,
        "RAAN(deg)": 74.98992712852863,
        "Satellite Name": "Constellation 1 341",
        "Satellite Number": 341,
        "Semi-Major Axis(m)": 7083131.272910544,
        "Time(s)": 178
    },
    {
        "Altitude(m)": 704781.8636327421,
        "Argument of Periapsis(deg)": 0.010730693117927606,
        "Eccentricity": 0.0,
        "Inclination(deg)": 45.0,
        "Latitude(deg)": -7.770751496731909,
        "Longitude(deg)": 162.07356453510621,
        "Mean Anomaly(deg)": 190.86550410473194,
        "RAAN(deg)": 74.98987053936307,
        "Satellite Name": "Constellation 1 341",
        "Satellite Number": 341,
        "Semi-Major Axis(m)": 7083131.272910544,
        "Time(s)": 179
    },
    {
        "Altitude(m)": 704791.0075829818,
        "Argument of Periapsis(deg)": 0.01079064112417301,
        "Eccentricity": 0.0,
        "Inclination(deg)": 45.0,
        "Latitude(deg)": -7.81354295770808,
        "Longitude(deg)": 162.11309564571297,
        "Mean Anomaly(deg)": 190.92620524498182,
        "RAAN(deg)": 74.98981395019749,
        "Satellite Name": "Constellation 1 341",
        "Satellite Number": 341,
        "Semi-Major Axis(m)": 7083131.272910544,
        "Time(s)": 180
    },
    {
        "Altitude(m)": 704800.1694990819,
        "Argument of Periapsis(deg)": 0.010850589130418416,
        "Eccentricity": 0.0,
        "Inclination(deg)": 45.0,
        "Latitude(deg)": -7.856329740673868,
        "Longitude(deg)": 162.15263554979117,
        "Mean Anomaly(deg)": 190.98690638523175,
        "RAAN(deg)": 74.98975736103192,
        "Satellite Name": "Constellation 1 341",
        "Satellite Number": 341,
        "Semi-Major Axis(m)": 7083131.272910544,
        "Time(s)": 181
    },
    {
        "Altitude(m)": 704809.3493581853,
        "Argument of Periapsis(deg)": 0.01091053713666382,
        "Eccentricity": 0.0,
        "Inclination(deg)": 45.0,
        "Latitude(deg)": -7.89911181923368,
        "Longitude(deg)": 162.19218429731905,
        "Mean Anomaly(deg)": 191.04760752548168,
        "RAAN(deg)": 74.98970077186635,
        "Satellite Name": "Constellation 1 341",
        "Satellite Number": 341,
        "Semi-Major Axis(m)": 7083131.272910544,
        "Time(s)": 182
    },
    {
        "Altitude(m)": 704818.5471373415,
        "Argument of Periapsis(deg)": 0.010970485142909228,
        "Eccentricity": 0.0,
        "Inclination(deg)": 45.0,
        "Latitude(deg)": -7.941889166975543,
        "Longitude(deg)": 162.2317419382935,
        "Mean Anomaly(deg)": 191.10830866573147,
        "RAAN(deg)": 74.98964418270079,
        "Satellite Name": "Constellation 1 341",
        "Satellite Number": 341,
        "Semi-Major Axis(m)": 7083131.272910544,
        "Time(s)": 183
    },
    {
        "Altitude(m)": 704827.762813532,
        "Argument of Periapsis(deg)": 0.011030433149154634,
        "Eccentricity": 0.0,
        "Inclination(deg)": 45.0,
        "Latitude(deg)": -7.984661757470873,
        "Longitude(deg)": 162.27130852272998,
        "Mean Anomaly(deg)": 191.16900980598146,
        "RAAN(deg)": 74.98958759353522,
        "Satellite Name": "Constellation 1 341",
        "Satellite Number": 341,
        "Semi-Major Axis(m)": 7083131.272910544,
        "Time(s)": 184
    },
    {
        "Altitude(m)": 704836.996363634,
        "Argument of Periapsis(deg)": 0.01109038115540004,
        "Eccentricity": 0.0,
        "Inclination(deg)": 45.0,
        "Latitude(deg)": -8.027429564273644,
        "Longitude(deg)": 162.31088393256516,
        "Mean Anomaly(deg)": 191.2297109462313,
        "RAAN(deg)": 74.98953100436965,
        "Satellite Name": "Constellation 1 341",
        "Satellite Number": 341,
        "Semi-Major Axis(m)": 7083131.272910544,
        "Time(s)": 185
    },
    {
        "Altitude(m)": 704846.2477644612,
        "Argument of Periapsis(deg)": 0.011150329161645444,
        "Eccentricity": 0.0,
        "Inclination(deg)": 45.0,
        "Latitude(deg)": -8.070192560922196,
        "Longitude(deg)": 162.350468554046,
        "Mean Anomaly(deg)": 191.29041208648124,
        "RAAN(deg)": 74.98947441520407,
        "Satellite Name": "Constellation 1 341",
        "Satellite Number": 341,
        "Semi-Major Axis(m)": 7083131.272910544,
        "Time(s)": 186
    },
    {
        "Altitude(m)": 704855.5169927238,
        "Argument of Periapsis(deg)": 0.01121027716789085,
        "Eccentricity": 0.0,
        "Inclination(deg)": 45.0,
        "Latitude(deg)": -8.112950720936869,
        "Longitude(deg)": 162.39006226914688,
        "Mean Anomaly(deg)": 191.3511132267311,
        "RAAN(deg)": 74.9894178260385,
        "Satellite Name": "Constellation 1 341",
        "Satellite Number": 341,
        "Semi-Major Axis(m)": 7083131.272910544,
        "Time(s)": 187
    },
    {
        "Altitude(m)": 704864.8040250569,
        "Argument of Periapsis(deg)": 0.011270225174136258,
        "Eccentricity": 0.0,
        "Inclination(deg)": 45.0,
        "Latitude(deg)": -8.155704017821147,
        "Longitude(deg)": 162.42966512795812,
        "Mean Anomaly(deg)": 191.41181436698102,
        "RAAN(deg)": 74.98936123687294,
        "Satellite Name": "Constellation 1 341",
        "Satellite Number": 341,
        "Semi-Major Axis(m)": 7083131.272910544,
        "Time(s)": 188
    },
    {
        "Altitude(m)": 704874.108838012,
        "Argument of Periapsis(deg)": 0.011330173180381662,
        "Eccentricity": 0.0,
        "Inclination(deg)": 45.0,
        "Latitude(deg)": -8.198452425061475,
        "Longitude(deg)": 162.46927718058902,
        "Mean Anomaly(deg)": 191.47251550723092,
        "RAAN(deg)": 74.98930464770736,
        "Satellite Name": "Constellation 1 341",
        "Satellite Number": 341,
        "Semi-Major Axis(m)": 7083131.272910544,
        "Time(s)": 189
    }
]